TDRS 3                  
1 19548U 88091B   24189.32546017 -.00000306  00000+0  00000+0 0  9993
2 19548  13.1463 345.7820 0033451 341.3942  26.5983  1.00264260118271
TDRS 5                  
1 21639U 91054B   24189.39437323 -.00000309  00000+0  00000+0 0  9999
2 21639  14.1598 358.9610 0002930 207.8960 158.6285  1.00278054120600
TDRS 6                  
1 22314U 93003B   24189.90419377 -.00000303  00000+0  00000+0 0  9996
2 22314  14.1631   2.2594 0011951 156.3947  47.3404  1.00269045115268
TDRS 7                  
1 23613U 95035B   24189.42378689 -.00000209  00000+0  00000+0 0  9998
2 23613  13.6726 353.0875 0027962  72.5115  97.7242  1.00270324106131
TDRS 8                  
1 26388U 00034A   24189.50511219  .00000087  00000+0  00000+0 0  9995
2 26388  11.5659  37.1228 0001182 189.7822  73.4671  1.00280716 88063
TDRS 10                 
1 27566U 02055A   24189.53533904  .00000078  00000+0  00000+0 0  9997
2 27566   9.6004  45.2644 0005345 352.3370 269.8982  1.00272080 79114
TDRS 11                 
1 39070U 13004A   24189.80146424  .00000075  00000+0  00000+0 0  9990
2 39070   2.7549  12.4140 0006610  54.1459 333.9803  1.00265373 41877
TDRS 12                 
1 39504U 14004A   24189.82800613 -.00000274  00000+0  00000+0 0  9994
2 39504   3.5543   3.9050 0003756 189.7495 349.7112  1.00276750 38336
TDRS 13                 
1 42915U 17047A   24189.83383664 -.00000100  00000+0  00000+0 0  9995
2 42915   3.6236 345.0857 0017508 118.0726 111.8393  1.00272253 25264
LANDSAT 7               
1 25682U 99020A   24190.18703456  .00000671  00000+0  14647-3 0  9991
2 25682  97.8865 215.9838 0001186  90.0658 358.9255 14.60735791342265
TERRA                   
1 25994U 99068A   24190.19989517  .00000672  00000+0  14993-3 0  9999
2 25994  98.0472 253.0701 0000884 337.5174  87.7523 14.59849531306234
AQUA                    
1 27424U 02022A   24189.93883762  .00001390  00000+0  30311-3 0  9998
2 27424  98.3311 139.3885 0002161  69.7436 336.1498 14.59450258179743
AURA                    
1 28376U 04026A   24189.46932294  .00001286  00000+0  28581-3 0  9994
2 28376  98.2515 134.1662 0002081  54.8168 305.3226 14.58682595 62635
GPM-CORE                
1 39574U 14009C   24189.91306038  .00009675  00000+0  21232-3 0  9995
2 39574  64.9842 163.6816 0006597 259.3812 100.6585 15.44534609588277
HST                     
1 20580U 90037B   24189.43690992  .00004627  00000+0  21201-3 0  9997
2 20580  28.4668 209.4325 0002309 250.0269 110.0075 15.18002489680112
TIMED                   
1 26998U 01055B   24190.17566123  .00001417  00000+0  14530-3 0  9990
2 26998  74.0689 219.1967 0002688 270.4331  89.6543 14.91520589225096
SORCE                   
1 27651U 03004A   24189.79857238  .00003764  00000+0  34646-3 0  9996
2 27651  39.9942 327.2887 0020756  19.9982 340.1619 14.95374621165350
SWIFT                   
1 28485U 04047A   24189.92230724  .00012867  00000+0  55984-3 0  9992
2 28485  20.5575  32.6904 0007765 185.1118 174.9240 15.19697372 77480
FGRST (GLAST)           
1 33053U 08029A   24189.82685309  .00003988  00000+0  18079-3 0  9993
2 33053  25.5832  67.5449 0009803 274.6545  85.2872 15.16983763887935
WISE                    
1 36119U 09071A   24190.14906996  .00056858  00000+0  52594-3 0  9996
2 36119  97.1410 227.0606 0003079 108.1516 252.0081 15.67366882811547
MMS 1                   
1 40482U 15011A   24189.91667824 -.00001708  00000+0  00000+0 0  9998
2 40482  49.2934   9.7254 9083243 147.8918  85.9636  0.28409684 15436
MMS 2                   
1 40483U 15011B   24189.91667824 -.00001708  00000+0  00000+0 0  9999
2 40483  49.2935   9.7252 9083326 147.8918  85.7509  0.28406371 15413
MMS 3                   
1 40484U 15011C   24189.91667824 -.00001708  00000+0  00000+0 0  9990
2 40484  49.2935   9.7253 9083323 147.8918  85.8306  0.28406464 15411
MMS 4                   
1 40485U 15011D   24189.91667824 -.00001711  00000+0  00000+0 0  9995
2 40485  49.3088   9.7086 9084491 147.9018  85.0951  0.28370309 15411
THEMIS A                
1 30580U 07004A   24186.54627366 -.00000115  00000+0  00000+0 0  9993
2 30580   9.8802 263.7065 8349696 323.5603   2.5308  0.87834453 35010
THEMIS D                
1 30797U 07004D   24187.74150355 -.00000164  00000+0  00000+0 0  9999
2 30797   5.6645 260.9407 8342742 330.3860   8.5455  0.87835605 34821
THEMIS E                
1 30798U 07004E   24185.56407969 -.00000143  00000+0  00000+0 0  9991
2 30798   7.4212 280.3168 8334252 312.0720  55.1285  0.87833114 59640
NOAA 20 (JPSS-1)        
1 43013U 17073A   24189.92325023  .00000126  00000+0  80292-4 0  9992
2 43013  98.7064 127.4982 0001813 126.3163 233.8180 14.19540302343841
